{"epoch":1784762836,"count":18316,"objects":[{"id":"43010","name":"FENGYUN 3D","type":"PAYLOAD","l1":"1 43010U 17072A   26203.59609375 -.00000235  00000-0 -89131-4 0  9990","l2":"2 43010  99.0155 178.6624 0001105 359.9868   0.1307 14.19744644450013"},{"id":"43013","name":"NOAA 20","type":"PAYLOAD","l1":"1 43013U 17073A   26203.52639505  .00000042  00000-0  41113-4 0  9997","l2":"2 43013  98.7772 142.6761 0001633 116.3166 243.8178 14.19517540449486"},{"id":"43226","name":"GOES 17","type":"PAYLOAD","l1":"1 43226U 18022A   26203.45399409 -.00000180  00000-0  00000-0 0  9996","l2":"2 43226   1.0251  85.1599 0000676  57.9242 231.0538  1.00272005 30779"},{"id":"43437","name":"SENTINEL 3B","type":"PAYLOAD","l1":"1 43437U 18039A   26203.46502394  .00000070  00000-0  46991-4 0  9998","l2":"2 43437  98.6230 270.4877 0001304 118.2175 241.9137 14.26737858429158"},{"id":"43491","name":"FENGYUN 2H","type":"PAYLOAD","l1":"1 43491U 18050A   26203.62998419 -.00000124  00000-0  00000-0 0  9994","l2":"2 43491   3.1204  78.6598 0002028 124.9608  42.5614  1.00267285 29798"},{"id":"43689","name":"METOP-C","type":"PAYLOAD","l1":"1 43689U 18087A   26203.54326465  .00000051  00000-0  42936-4 0  9996","l2":"2 43689  98.6624 262.4969 0002080  84.3319 275.8096 14.21504218399852"},{"id":"43823","name":"GEO-KOMPSAT-2A","type":"PAYLOAD","l1":"1 43823U 18100A   26203.52780784  .00000000  00000-0  00000-0 0  9994","l2":"2 43823   0.0201  77.8265 0002590  21.9227 158.8059  1.00268928 27987"},{"id":"44387","name":"METEOR M2-2","type":"PAYLOAD","l1":"1 44387U 19038A   26203.57837995  .00000170  00000-0  93258-4 0  9992","l2":"2 44387  98.9173 191.3899 0000273 347.2571  12.8600 14.24374460366339"},{"id":"47719","name":"ARKTIKA-M 1","type":"PAYLOAD","l1":"1 47719U 21016A   26198.89672402 -.00000295  00000-0  00000-0 0  9999","l2":"2 47719  63.2571  53.1467 7298516 270.0868  14.5016  2.00610215 39409"},{"id":"49008","name":"FENGYUN 3E","type":"PAYLOAD","l1":"1 49008U 21062A   26203.57605979  .00000008  00000-0  24338-4 0  9995","l2":"2 49008  98.7511 206.5910 0001895  26.8420 333.2854 14.19906399261606"},{"id":"51850","name":"GOES 18","type":"PAYLOAD","l1":"1 51850U 22021A   26203.51016858  .00000100  00000-0  00000-0 0  9994","l2":"2 51850   0.0041 109.5188 0000511  31.2214 206.1641  1.00273019  6940"},{"id":"54234","name":"NOAA 21","type":"PAYLOAD","l1":"1 54234U 22150A   26203.55857446  .00000023  00000-0  31735-4 0  9993","l2":"2 54234  98.7059 141.7538 0002914  91.3882 268.7628 14.19541919191569"},{"id":"54743","name":"METEOSAT 12 (MTG I1)","type":"PAYLOAD","l1":"1 54743U 22170C   26203.32907471 -.00000006  00000-0  00000-0 0  9998","l2":"2 54743   0.7323  20.9174 0004138  81.0088 316.2205  1.00269885 13332"},{"id":"55973","name":"TIANMU-1 03","type":"PAYLOAD","l1":"1 55973U 23039A   26203.60842509  .00015808  00000-0  30202-3 0  9995","l2":"2 55973  97.5250  18.9931 0001943 357.7176   2.4065 15.48199210186319"},{"id":"55974","name":"TIANMU-1 04","type":"PAYLOAD","l1":"1 55974U 23039B   26203.64844916  .00016559  00000-0  30935-3 0  9991","l2":"2 55974  97.5191  18.1919 0002275 342.7364  17.3809 15.48832929186338"},{"id":"55975","name":"TIANMU-1 05","type":"PAYLOAD","l1":"1 55975U 23039C   26203.59092719  .00015437  00000-0  29576-3 0  9995","l2":"2 55975  97.5233  18.5770 0002339  27.6801 332.4573 15.48121696186297"},{"id":"55976","name":"TIANMU-1 06","type":"PAYLOAD","l1":"1 55976U 23039D   26203.58952234  .00016146  00000-0  30284-3 0  9998","l2":"2 55976  97.5242  19.2474 0002348  16.0289 344.1035 15.48725285186320"},{"id":"56232","name":"FENGYUN 3G","type":"PAYLOAD","l1":"1 56232U 23055A   26203.48633669  .00024688  00000-0  37939-3 0  9993","l2":"2 56232  49.9912 163.9340 0006809  90.3788 269.7960 15.54035305185495"},{"id":"57166","name":"METEOR M2-3","type":"PAYLOAD","l1":"1 57166U 23091A   26203.58089069 -.00000021  00000-0  97421-5 0  9990","l2":"2 57166  98.6063 257.8311 0005062  73.8553 286.3183 14.24049325159550"},{"id":"57399","name":"TIANMU-1 07","type":"PAYLOAD","l1":"1 57399U 23101A   26203.61320668  .00006224  00000-0  21570-3 0  9997","l2":"2 57399  97.2576 253.4724 0003186  49.2429 310.9088 15.30175462167069"},{"id":"57400","name":"TIANMU-1 08","type":"PAYLOAD","l1":"1 57400U 23101B   26203.57975671  .00005949  00000-0  20626-3 0  9999","l2":"2 57400  97.2565 253.2052 0003856  25.6986 334.4446 15.30178167167055"},{"id":"57401","name":"TIANMU-1 09","type":"PAYLOAD","l1":"1 57401U 23101C   26203.56231796  .00006442  00000-0  22283-3 0  9992","l2":"2 57401  97.2524 252.5860 0003794  47.6076 312.5486 15.30221614167052"},{"id":"57402","name":"TIANMU-1 10","type":"PAYLOAD","l1":"1 57402U 23101D   26203.59598350  .00006440  00000-0  22291-3 0  9995","l2":"2 57402  97.2602 253.7056 0004949  33.3371 326.8181 15.30195716167056"},{"id":"57490","name":"FENGYUN 3F","type":"PAYLOAD","l1":"1 57490U 23111A   26203.62958346  .00000008  00000-0  24243-4 0  9996","l2":"2 57490  98.6820 272.9749 0001122  75.2021 284.9279 14.19944269153899"},{"id":"58584","name":"ARKTIKA-M 2","type":"PAYLOAD","l1":"1 58584U 23198A   26202.15670971  .00000142  00000-0  00000-0 0  9998","l2":"2 58584  63.2169 150.5623 6912649 267.3229  18.7284  2.00607150 19000"},{"id":"58645","name":"TIANMU-1 11","type":"PAYLOAD","l1":"1 58645U 23205A   26203.56691054  .00005116  00000-0  19386-3 0  9992","l2":"2 58645  97.3449 224.5750 0007219 229.5120 130.5491 15.27314752142929"},{"id":"58646","name":"TIANMU-1 12","type":"PAYLOAD","l1":"1 58646U 23205B   26203.67156534  .00004112  00000-0  15785-3 0  9998","l2":"2 58646  97.3438 224.4213 0006487 209.2070 150.8807 15.27003015142929"},{"id":"58647","name":"TIANMU-1 13","type":"PAYLOAD","l1":"1 58647U 23205C   26203.57359764  .00005482  00000-0  20862-3 0  9991","l2":"2 58647  97.3466 224.6082 0006648 184.2566 175.8618 15.27141425142901"},{"id":"58648","name":"TIANMU-1 14","type":"PAYLOAD","l1":"1 58648U 23205D   26203.55778049  .00005422  00000-0  20609-3 0  9994","l2":"2 58648  97.3403 223.7467 0007243 191.1738 168.9341 15.27184709142908"},{"id":"58660","name":"TIANMU-1 19","type":"PAYLOAD","l1":"1 58660U 23208A   26203.62696716  .00008544  00000-0  27845-3 0  9996","l2":"2 58660  97.4523 320.1255 0005328 172.2086 187.9239 15.32057679142752"}]}