OBJECT_NAME,OBJECT_ID,EPOCH,MEAN_MOTION,ECCENTRICITY,INCLINATION,RA_OF_ASC_NODE,ARG_OF_PERICENTER,MEAN_ANOMALY,EPHEMERIS_TYPE,CLASSIFICATION_TYPE,NORAD_CAT_ID,ELEMENT_SET_NO,REV_AT_EPOCH,BSTAR,MEAN_MOTION_DOT,MEAN_MOTION_DDOT
FENGYUN 3D,2017-072A,2026-07-22T14:18:22.500000,14.19744644,.00011047,99.0155,178.6624,359.9868,0.1307,0,U,43010,999,45001,-.89131418E-4,-.235E-5,0
NOAA 20 (JPSS-1),2017-073A,2026-07-22T12:38:00.532320,14.19517540,.00016331,98.7772,142.6761,116.3166,243.8178,0,U,43013,999,44948,.41112721E-4,.42E-6,0
GOES 17,2018-022A,2026-07-22T10:53:45.089376,1.00272005,.00006755,1.0251,85.1599,57.9242,231.0538,0,U,43226,999,3077,0,-.18E-5,0
SENTINEL-3B,2018-039A,2026-07-22T11:09:38.068416,14.26737858,.00013042,98.6230,270.4877,118.2175,241.9137,0,U,43437,999,42915,.46991424E-4,.7E-6,0
FENGYUN 2H,2018-050A,2026-07-22T15:07:10.634016,1.00267285,.00020277,3.1204,78.6598,124.9608,42.5614,0,U,43491,999,2979,0,-.124E-5,0
METOP-C,2018-087A,2026-07-22T13:02:18.065760,14.21504218,.00020797,98.6624,262.4969,84.3319,275.8096,0,U,43689,999,39985,.42936182E-4,.51E-6,0
GEO-KOMPSAT-2A,2018-100A,2026-07-22T12:40:02.597376,1.00268928,.00025898,0.0201,77.8265,21.9227,158.8059,0,U,43823,999,2798,0,0,0
METEOR-M2 2,2019-038A,2026-07-22T13:52:52.027680,14.24374460,.00002732,98.9173,191.3899,347.2571,12.8600,0,U,44387,999,36633,.93257806E-4,.17E-5,0
ARKTIKA-M 1,2021-016A,2026-07-17T21:31:16.955328,2.00610215,.72985164,63.2571,53.1467,270.0868,14.5016,0,U,47719,999,3940,0,-.295E-5,0
FENGYUN 3E,2021-062A,2026-07-22T13:49:31.565856,14.19906399,.00018949,98.7511,206.5910,26.8420,333.2854,0,U,49008,999,26160,.24338026E-4,.8E-7,0
GOES 18,2022-021A,2026-07-22T12:14:38.565312,1.00273019,.00005109,0.0041,109.5188,31.2214,206.1641,0,U,51850,999,694,0,.1E-5,0
NOAA 21 (JPSS-2),2022-150A,2026-07-22T13:24:20.833344,14.19541919,.00029137,98.7059,141.7538,91.3882,268.7628,0,U,54234,999,19156,.31735117E-4,.23E-6,0
METEOSAT-12 (MTG-I1),2022-170C,2026-07-22T07:53:52.054944,1.00269885,.00041383,0.7323,20.9174,81.0088,316.2205,0,U,54743,999,1333,0,-.6E-7,0
TIANMU-1 03,2023-039A,2026-07-22T14:36:07.927776,15.48199210,.00019427,97.5250,18.9931,357.7176,2.4065,0,U,55973,999,18631,.30202289E-3,.15808E-3,0
TIANMU-1 04,2023-039B,2026-07-22T15:33:46.007424,15.48832929,.00022746,97.5191,18.1919,342.7364,17.3809,0,U,55974,999,18633,.30935381E-3,.16559E-3,0
TIANMU-1 05,2023-039C,2026-07-22T14:10:56.109216,15.48121696,.00023386,97.5233,18.5770,27.6801,332.4573,0,U,55975,999,18629,.29576147E-3,.15437E-3,0
TIANMU-1 06,2023-039D,2026-07-22T14:08:54.730176,15.48725285,.00023476,97.5242,19.2474,16.0289,344.1035,0,U,55976,999,18632,.30283719E-3,.16146E-3,0
FENGYUN 3G,2023-055A,2026-07-22T11:40:19.490016,15.54035305,.00068091,49.9912,163.9340,90.3788,269.7960,0,U,56232,999,18549,.37938808E-3,.24688E-3,0
METEOR-M2 3,2023-091A,2026-07-22T13:56:28.955616,14.24049325,.00050616,98.6063,257.8311,73.8553,286.3183,0,U,57166,999,15955,.9742131E-5,-.21E-6,0
TIANMU-1 07,2023-101A,2026-07-22T14:43:01.057152,15.30175462,.00031857,97.2576,253.4724,49.2429,310.9088,0,U,57399,999,16706,.21570364E-3,.6224E-4,0
TIANMU-1 08,2023-101B,2026-07-22T13:54:50.979744,15.30178167,.00038563,97.2565,253.2052,25.6986,334.4446,0,U,57400,999,16705,.20626318E-3,.5949E-4,0
TIANMU-1 09,2023-101C,2026-07-22T13:29:44.271744,15.30221614,.00037939,97.2524,252.5860,47.6076,312.5486,0,U,57401,999,16705,.22282749E-3,.6442E-4,0
TIANMU-1 10,2023-101D,2026-07-22T14:18:12.974400,15.30195716,.00049491,97.2602,253.7056,33.3371,326.8181,0,U,57402,999,16705,.22290505E-3,.644E-4,0
FENGYUN 3F,2023-111A,2026-07-22T15:06:36.010944,14.19944269,.00011221,98.6820,272.9749,75.2021,284.9279,0,U,57490,999,15389,.24243003E-4,.8E-7,0
ARKTIKA-M 2,2023-198A,2026-07-21T03:45:39.718944,2.00607150,.69126494,63.2169,150.5623,267.3229,18.7284,0,U,58584,999,1900,0,.142E-5,0
TIANMU-1 11,2023-205A,2026-07-22T13:36:21.070656,15.27314752,.00072188,97.3449,224.5750,229.5120,130.5491,0,U,58645,999,14292,.19386204E-3,.5116E-4,0
TIANMU-1 12,2023-205B,2026-07-22T16:07:03.245376,15.27003015,.0006487,97.3438,224.4213,209.2070,150.8807,0,U,58646,999,14292,.15785E-3,.4112E-4,0
TIANMU-1 13,2023-205C,2026-07-22T13:45:58.836096,15.27141425,.00066478,97.3466,224.6082,184.2566,175.8618,0,U,58647,999,14290,.20861924E-3,.5482E-4,0
TIANMU-1 14,2023-205D,2026-07-22T13:23:12.234336,15.27184709,.0007243,97.3403,223.7467,191.1738,168.9341,0,U,58648,999,14290,.20608873E-3,.5422E-4,0
TIANMU-1 19,2023-208A,2026-07-22T15:02:49.962624,15.32057679,.00053277,97.4523,320.1255,172.2086,187.9239,0,U,58660,999,14275,.27845234E-3,.8544E-4,0
